NORAD_CAT_ID,OBJECT_NAME,OBJECT_TYPE,EPOCH,MEAN_MOTION,ECCENTRICITY,INCLINATION,RA_OF_ASC_NODE,ARG_OF_PERICENTER,MEAN_ANOMALY,BSTAR,MEAN_MOTION_DOT,MEAN_MOTION_DDOT,TLE_LINE0,TLE_LINE1,TLE_LINE2,SEMIMAJOR_AXIS,PERIOD,APOGEE,PERIGEE,DECAYED
53140.0,STARLINK-4170,PAYLOAD,2023-10-16 07:13:33,15.08845419,0.000121,53.2156,143.893,91.7802,268.3329,0.00033752,5.089e-05,0.0,0 STARLINK-4170,1 53140U 22083J   23289.30108525  .00005089  00000-0  33752-3 0  9991,2 53140  53.2156 143.8930 0001210  91.7802 268.3329 15.08845419 69065,6917.864,95.437,540.566,538.892,0.0
53140.0,STARLINK-4170,PAYLOAD,2023-10-16 16:45:52,15.08842447,0.0001205,53.2148,142.1089,92.9433,267.1697,0.0002232,3.266e-05,0.0,0 STARLINK-4170,1 53140U 22083J   23289.69852601  .00003266  00000-0  22320-3 0  9998,2 53140  53.2148 142.1089 0001205  92.9433 267.1697 15.08842447 69759,6917.873,95.437,540.572,538.904,0.0
53140.0,STARLINK-4170,PAYLOAD,2023-10-17 22:58:12,15.08842176,0.0001162,53.2148,136.4582,85.3354,274.7771,9.7539e-05,1.265e-05,0.0,0 STARLINK-4170,1 53140U 22083J   23290.95708503  .00001265  00000-0  97539-4 0  9992,2 53140  53.2148 136.4582 0001162  85.3354 274.7771 15.08842176 69311,6917.874,95.437,540.543,538.935,0.0
53140.0,STARLINK-4170,PAYLOAD,2023-10-18 06:55:07,15.08842929,0.0001169,53.2149,134.9713,86.3677,273.7449,9.186e-05,1.175e-05,0.0,0 STARLINK-4170,1 53140U 22083J   23291.28828466  .00001175  00000-0  91860-4 0  9991,2 53140  53.2149 134.9713 0001169  86.3677 273.7449 15.08842929 69998,6917.871,95.437,540.545,538.928,0.0
53140.0,STARLINK-4170,PAYLOAD,2023-10-18 22:48:59,15.08848864,0.0002257,53.2119,131.9983,83.7109,276.414,0.00024032,3.539e-05,0.0,0 STARLINK-4170,1 53140U 22083J   23291.95068682  .00003539  00000-0  24032-3 0  9993,2 53140  53.2119 131.9983 0002257  83.7109 276.4140 15.08848864 69465,6917.853,95.437,541.28,538.157,0.0
53140.0,STARLINK-4170,PAYLOAD,2023-10-19 19:28:59,15.08857193,0.0002057,53.2126,128.1324,84.4934,275.6293,0.00029621,4.431e-05,0.0,0 STARLINK-4170,1 53140U 22083J   23292.81179803  .00004431  00000-0  29621-3 0  9998,2 53140  53.2126 128.1324 0002057  84.4934 275.6293 15.08857193 70223,6917.828,95.436,541.116,538.27,0.0
53140.0,STARLINK-4170,PAYLOAD,2023-10-20 12:58:14,15.08841443,0.0002243,53.2123,124.8586,92.9592,267.1656,1.1653e-05,-1.03e-06,0.0,0 STARLINK-4170,1 53140U 22083J   23293.54044358 -.00000103  00000-0  11653-4 0  9995,2 53140  53.2123 124.8586 0002243  92.9592 267.1656 15.08841443 69705,6917.876,95.437,541.293,538.189,0.0
53140.0,STARLINK-4170,PAYLOAD,2023-10-20 16:09:00,15.08833392,0.0001661,53.2144,124.2659,85.4309,274.6873,-6.5086e-05,-1.324e-05,0.0,0 STARLINK-4170,1 53140U 22083J   23293.67292811 -.00001324  00000-0 -65086-4 0  9994,2 53140  53.2144 124.2659 0001661  85.4309 274.6873 15.08833392 70350,6917.901,95.438,540.915,538.617,0.0
53140.0,STARLINK-4170,PAYLOAD,2023-10-21 12:49:01,15.08835736,0.0002124,53.2161,120.3932,109.6606,250.4616,0.00019838,2.87e-05,0.0,0 STARLINK-4170,1 53140U 22083J   23294.53404628  .00002870  00000-0  19838-3 0  9999,2 53140  53.2161 120.3932 0002124 109.6606 250.4616 15.08835736 69858,6917.893,95.438,541.228,538.289,0.0
53140.0,STARLINK-4170,PAYLOAD,2023-10-21 19:10:33,15.0885153,0.0001509,53.2152,119.2107,86.7744,273.342,0.00012466,1.697e-05,0.0,0 STARLINK-4170,1 53140U 22083J   23294.79899991  .00001697  00000-0  12466-3 0  9994,2 53140  53.2152 119.2107 0001509  86.7744 273.3420 15.08851530 70526,6917.845,95.437,540.754,538.666,0.0
53140.0,STARLINK-4170,PAYLOAD,2023-10-21 22:21:19,15.08850977,0.0001607,53.2154,118.6157,90.176,269.9417,0.00019847,2.873e-05,0.0,0 STARLINK-4170,1 53140U 22083J   23294.93148004  .00002873  00000-0  19847-3 0  9999,2 53140  53.2154 118.6157 0001607  90.1760 269.9417 15.08850977 69914,6917.847,95.437,540.824,538.6,0.0
53140.0,STARLINK-4170,PAYLOAD,2023-10-22 12:39:48,15.08833958,0.0001405,53.2153,115.939,93.0114,267.1039,7.3213e-05,8.77e-06,0.0,0 STARLINK-4170,1 53140U 22083J   23295.52764953  .00000877  00000-0  73213-4 0  9992,2 53140  53.2153 115.9390 0001405  93.0114 267.1039 15.08833958 70634,6917.899,95.438,540.736,538.792,0.0
53140.0,STARLINK-4170,PAYLOAD,2023-10-22 19:01:21,15.08837817,0.0001469,53.2154,114.7509,91.2428,268.8732,0.0001278,1.746e-05,0.0,0 STARLINK-4170,1 53140U 22083J   23295.79260948  .00001746  00000-0  12780-3 0  9993,2 53140  53.2154 114.7509 0001469  91.2428 268.8732 15.08837817 70043,6917.887,95.438,540.768,538.736,0.0
53140.0,STARLINK-4170,PAYLOAD,2023-10-23 18:52:08,15.08843144,0.0001444,53.2156,110.2904,93.1445,266.9712,0.00021143,3.079e-05,0.0,0 STARLINK-4170,1 53140U 22083J   23296.78620878  .00003079  00000-0  21143-3 0  9999,2 53140  53.2156 110.2904 0001444  93.1445 266.9712 15.08843144 70821,6917.871,95.437,540.735,538.737,0.0
53140.0,STARLINK-4170,PAYLOAD,2023-10-23 22:02:54,15.08845091,0.0001437,53.2156,109.6956,93.3831,266.7326,0.00026297,3.9e-05,0.0,0 STARLINK-4170,1 53140U 22083J   23296.91868826  .00003900  00000-0  26297-3 0  9999,2 53140  53.2156 109.6956 0001437  93.3831 266.7326 15.08845091 70218,6917.865,95.437,540.724,538.736,0.0
53140.0,STARLINK-4170,PAYLOAD,2023-10-24 12:21:23,15.08838224,0.0001435,53.2156,107.0189,93.516,266.5996,0.00015704,2.212e-05,0.0,0 STARLINK-4170,1 53140U 22083J   23297.51485097  .00002212  00000-0  15704-3 0  9997,2 53140  53.2156 107.0189 0001435  93.5160 266.5996 15.08838224 70933,6917.886,95.438,540.744,538.758,0.0
53140.0,STARLINK-4170,PAYLOAD,2023-10-24 13:56:46,15.08839102,0.0001432,53.2157,106.7216,93.0912,267.0244,0.00015773,2.223e-05,0.0,0 STARLINK-4170,1 53140U 22083J   23297.58109054  .00002223  00000-0  15773-3 0  9998,2 53140  53.2157 106.7216 0001432  93.0912 267.0244 15.08839102 70318,6917.883,95.438,540.739,538.757,0.0
53140.0,STARLINK-4170,PAYLOAD,2023-10-25 13:47:33,15.08835973,0.0001387,53.216,102.261,90.7474,269.3677,3.1666e-05,2.16e-06,0.0,0 STARLINK-4170,1 53140U 22083J   23298.57469318  .00000216  00000-0  31666-4 0  9990,2 53140  53.2160 102.2610 0001387  90.7474 269.3677 15.08835973 71090,6917.893,95.438,540.717,538.798,0.0
53140.0,STARLINK-4170,PAYLOAD,2023-10-25 21:44:28,15.08841747,0.0001386,53.216,100.7742,89.5905,270.5246,8.4339e-05,1.055e-05,0.0,0 STARLINK-4170,1 53140U 22083J   23298.90589055  .00001055  00000-0  84339-4 0  9995,2 53140  53.2160 100.7742 0001386  89.5905 270.5246 15.08841747 70511,6917.875,95.437,540.699,538.781,0.0
53140.0,STARLINK-4170,PAYLOAD,2023-10-26 13:38:20,15.0884405,0.0001354,53.2172,97.8009,86.5134,273.6013,0.00014846,2.076e-05,0.0,0 STARLINK-4170,1 53140U 22083J   23299.56829086  .00002076  00000-0  14846-3 0  9998,2 53140  53.2172  97.8009 0001354  86.5134 273.6013 15.08844050 70619,6917.868,95.437,540.67,538.796,0.0
53140.0,STARLINK-4170,PAYLOAD,2023-10-26 18:24:29,15.08848859,0.0001369,53.2161,96.9087,85.485,274.6298,0.00019139,2.76e-05,0.0,0 STARLINK-4170,1 53140U 22083J   23299.76700766  .00002760  00000-0  19139-3 0  9993,2 53140  53.2161  96.9087 0001369  85.4850 274.6298 15.08848859 71272,6917.853,95.437,540.665,538.771,0.0
53140.0,STARLINK-4170,PAYLOAD,2023-10-26 21:35:15,15.08854152,0.0001363,53.2162,96.3139,85.0863,275.0285,0.00026883,3.995e-05,0.0,0 STARLINK-4170,1 53140U 22083J   23299.89948484  .00003995  00000-0  26883-3 0  9993,2 53140  53.2162  96.3139 0001363  85.0863 275.0285 15.08854152 70665,6917.837,95.437,540.645,538.759,0.0
53140.0,STARLINK-4170,PAYLOAD,2023-10-27 03:56:48,15.0884957,0.0001336,53.2163,95.1245,86.7776,273.3369,0.00020034,2.903e-05,0.0,0 STARLINK-4170,1 53140U 22083J   23300.16444716  .00002903  00000-0  20034-3 0  9995,2 53140  53.2163  95.1245 0001336  86.7776 273.3369 15.08849570 70709,6917.851,95.437,540.64,538.792,0.0
53140.0,STARLINK-4170,PAYLOAD,2023-10-27 19:50:39,15.08854831,0.0001392,53.216,92.1505,83.2288,276.8862,0.0003105,4.659e-05,0.0,0 STARLINK-4170,1 53140U 22083J   23300.82684299  .00004659  00000-0  31050-3 0  9990,2 53140  53.2160  92.1505 0001392  83.2288 276.8862 15.08854831 71437,6917.835,95.437,540.663,538.737,0.0
53140.0,STARLINK-4170,PAYLOAD,2023-10-28 10:09:08,15.08839265,0.000212,53.2161,89.4737,90.0551,270.0684,2.1337e-05,5.1e-07,0.0,0 STARLINK-4170,1 53140U 22083J   23301.42301021  .00000051  00000-0  21337-4 0  9996,2 53140  53.2161  89.4737 0002120  90.0551 270.0684 15.08839265 71525,6917.883,95.438,541.214,538.281,0.0
53140.0,STARLINK-4170,PAYLOAD,2023-10-28 13:19:54,15.0883291,0.0001755,53.216,88.879,83.2939,276.8253,-0.00010889,-2.02e-05,0.0,0 STARLINK-4170,1 53140U 22083J   23301.55549204 -.00002020  00000-0 -10889-3 0  9996,2 53140  53.2160  88.8790 0001755  83.2939 276.8253 15.08832910 70911,6917.902,95.438,540.981,538.553,0.0
53140.0,STARLINK-4170,PAYLOAD,2023-10-28 16:30:40,15.08836131,0.0001387,53.2162,88.2841,97.2663,262.8487,-2.5296e-05,-6.9e-06,0.0,0 STARLINK-4170,1 53140U 22083J   23301.68797250 -.00000690  00000-0 -25296-4 0  9996,2 53140  53.2162  88.2841 0001387  97.2663 262.8487 15.08836131 70939,6917.892,95.438,540.717,538.798,0.0
53140.0,STARLINK-4170,PAYLOAD,2023-10-29 13:10:41,15.08855778,0.0001502,53.2163,84.4176,98.0191,262.0971,0.00081392,0.00012695,0.0,0 STARLINK-4170,1 53140U 22083J   23302.54908882  .00012695  00000-0  81392-3 0  9991,2 53140  53.2163  84.4176 0001502  98.0191 262.0971 15.08855778 71695,6917.832,95.437,540.736,538.658,0.0
53140.0,STARLINK-4170,PAYLOAD,2023-10-29 14:46:04,15.08861777,0.0001376,53.2164,84.1204,97.949,262.1658,0.00094161,0.00014738,0.0,0 STARLINK-4170,1 53140U 22083J   23302.61532708  .00014738  00000-0  94161-3 0  9997,2 53140  53.2164  84.1204 0001376  97.9490 262.1658 15.08861777 71075,6917.814,95.436,540.631,538.727,0.0
53140.0,STARLINK-4170,PAYLOAD,2023-10-29 16:21:27,15.08867965,0.0001294,53.2164,83.8237,93.4184,266.6957,0.0011946,0.0001879,0.0,0 STARLINK-4170,1 53140U 22083J   23302.68156614  .00018790  00000-0  11946-2 0  9993,2 53140  53.2164  83.8237 0001294  93.4184 266.6957 15.08867965 71084,6917.795,95.436,540.555,538.765,0.0
